DMSP 5D-3 F16 (USA 172) 
1 28054U 03048A   25335.53429384  .00000166  00000+0  11036-3 0  9996
2 28054  99.0055 352.9027 0006972 354.7901 122.1627 14.14417685141547
METEOSAT-9 (MSG-2)      
1 28912U 05049B   25334.87117951  .00000143  00000+0  00000+0 0  9992
2 28912   8.9106  56.0825 0003919 183.7463 189.4011  1.00270497  5018
DMSP 5D-3 F17 (USA 191) 
1 29522U 06050A   25335.45618446  .00000214  00000+0  13326-3 0  9991
2 29522  98.7395 341.0801 0009127 260.1005  99.9139 14.14911755984451
FENGYUN 3A              
1 32958U 08026A   25335.40771343  .00000133  00000+0  83830-4 0  9992
2 32958  98.6680 275.1740 0008450 345.1444  14.9483 14.19508641907345
GOES 14                 
1 35491U 09033A   25335.41140346 -.00000046  00000+0  00000+0 0  9997
2 35491   1.1671  85.5426 0004108 148.4701 236.2775  1.00272666  4611
DMSP 5D-3 F18 (USA 210) 
1 35951U 09057A   25335.48109918  .00000304  00000+0  18054-3 0  9999
2 35951  98.8822 311.9389 0012102  92.0036 268.2523 14.14758620831639
EWS-G2 (GOES 15)        
1 36411U 10008A   25335.44511704  .00000059  00000+0  00000+0 0  9990
2 36411   0.7833  86.0266 0005873 169.3034  37.0061  1.00267712 57651
COMS 1                  
1 36744U 10032A   25335.16919770 -.00000323  00000+0  00000+0 0  9995
2 36744   4.3111  78.1267 0000991 176.7024   4.5517  1.00270723 49101
FENGYUN 3B              
1 37214U 10059A   25335.58894580  .00000119  00000+0  85050-4 0  9999
2 37214  98.9924  15.4876 0022519  29.1632 123.5847 14.14784809779484
SUOMI NPP               
1 37849U 11061A   25335.48630664  .00000119  00000+0  77324-4 0  9992
2 37849  98.7756 272.9301 0001823 140.6092 219.5217 14.19508965730392
METEOSAT-10 (MSG-3)     
1 38552U 12035B   25335.07622005  .00000015  00000+0  00000+0 0  9998
2 38552   4.1991  61.7388 0000616 218.2522 177.7466  1.00272105 48870
METOP-B                 
1 38771U 12049A   25335.45976772  .00000175  00000+0  10018-3 0  9992
2 38771  98.6816  25.6089 0002391 169.9648 190.1577 14.21401555685179
INSAT-3D                
1 39216U 13038B   25335.38722332 -.00000317  00000+0  00000+0 0  9994
2 39216   1.4127  85.1225 0001672 150.6351 103.6459  1.00274962 45095
FENGYUN 3C              
1 39260U 13052A   25335.50709128  .00000133  00000+0  88930-4 0  9999
2 39260  98.4751 313.7356 0013757 229.9117 130.0853 14.15690627630592
METEOR-M 2              
1 40069U 14037A   25335.55568509  .00000180  00000+0  10186-3 0  9992
2 40069  98.4891 313.5697 0004653 247.5297 112.5388 14.21379456591249
HIMAWARI-8              
1 40267U 14060A   25335.38947668 -.00000253  00000+0  00000+0 0  9998
2 40267   0.0448 140.7778 0001143 134.6264  75.9984  1.00272843 40773
FENGYUN 2G              
1 40367U 14090A   25335.30989079 -.00000281  00000+0  00000+0 0  9997
2 40367   5.1367  75.2298 0002978 193.0298  13.4759  1.00268502 40013
METEOSAT-11 (MSG-4)     
1 40732U 15034A   25335.29212402  .00000085  00000+0  00000+0 0  9990
2 40732   2.7070  72.0294 0000269 159.5945 313.3811  1.00277131  5235
ELEKTRO-L 2             
1 41105U 15074A   25335.10044743 -.00000097  00000+0  00000+0 0  9994
2 41105   6.1938  72.9644 0003858 196.3983 182.5148  1.00270025 36527
INSAT-3DR               
1 41752U 16054A   25335.44763037 -.00000056  00000+0  00000+0 0  9997
2 41752   0.0618  90.0471 0014333 178.6575  37.0532  1.00269676 33834
HIMAWARI-9              
1 41836U 16064A   25335.38947668  .00000000  00000+0  00000+0 0  9996
2 41836   0.0217 315.6627 0002300 341.2354  54.5576  1.00267916 33225
GOES 16                 
1 41866U 16071A   25335.37197583 -.00000069  00000+0  00000+0 0  9995
2 41866   0.0573 106.3401 0003391 142.9148 210.4879  1.00271206 33121
FENGYUN 4A              
1 41882U 16077A   25332.60376534 -.00000337  00000+0  00000+0 0  9995
2 41882   1.8103  82.5211 0004895 153.8506 172.3173  1.00262544 32914
CYGFM05                 
1 41884U 16078A   25335.51304877  .00023748  00000+0  45507-3 0  9997
2 41884  34.9575 120.4320 0009433  74.6047 285.5716 15.47009373498025
CYGFM04                 
1 41885U 16078B   25335.42523928  .00069457  00000+0  12101-2 0  9998
2 41885  34.9336  96.1014 0008498 103.9875 256.1792 15.49529943498182
CYGFM02                 
1 41886U 16078C   25335.43287145  .00028979  00000+0  48208-3 0  9990
2 41886  34.9425  94.5228 0010146 103.4995 256.6858 15.50983421498312
CYGFM01                 
1 41887U 16078D   25335.50927970  .00025241  00000+0  47419-3 0  9998
2 41887  34.9406 122.8849 0009149  65.6190 294.5485 15.47571359497969
CYGFM08                 
1 41888U 16078E   25335.44479189  .00026324  00000+0  47438-3 0  9990
2 41888  34.9439 106.4266 0010665  91.4226 268.7718 15.48736892498182
CYGFM07                 
1 41890U 16078G   25335.45118486  .00027131  00000+0  47947-3 0  9996
2 41890  34.9462  95.4271 0008881 110.9149 249.2525 15.49306120498203
CYGFM03                 
1 41891U 16078H   25335.48005889  .00025716  00000+0  45621-3 0  9996
2 41891  34.9414  97.1501 0008235  96.5737 263.5922 15.49211278498187
FENGYUN 3D              
1 43010U 17072A   25335.53232172  .00000138  00000+0  87199-4 0  9997
2 43010  98.9877 301.6756 0000540 233.6683 126.4443 14.19678473416944
NOAA 20 (JPSS-1)        
1 43013U 17073A   25335.43072480  .00000112  00000+0  73917-4 0  9999
2 43013  98.7582 271.8521 0002031 103.3445 256.7958 14.19520816416419
GOES 17                 
1 43226U 18022A   25335.41513016 -.00000161  00000+0  00000+0 0  9996
2 43226   0.4276  89.3776 0003408 180.5664 220.5393  1.00270104 28440
FENGYUN 2H              
1 43491U 18050A   25335.51999750 -.00000108  00000+0  00000+0 0  9996
2 43491   2.5193  81.4535 0002822 160.8156  94.9267  1.00271673 27452
METOP-C                 
1 43689U 18087A   25335.41888066  .00000173  00000+0  99053-4 0  9993
2 43689  98.6946  33.3610 0001777  60.7056 299.4299 14.21504977366735
GEO-KOMPSAT-2A          
1 43823U 18100A   25335.45829044 -.00000322  00000+0  00000+0 0  9990
2 43823   0.0603 123.8245 0000586  69.8330 170.1742  1.00270977 25646
METEOR-M2 2             
1 44387U 19038A   25335.49682785  .00000213  00000+0  11214-3 0  9991
2 44387  98.8961 315.0887 0000782 172.1189 188.0002 14.24283709333151
ARKTIKA-M 1             
1 47719U 21016A   25330.12769414 -.00000005  00000+0  00000+0 0  9999
2 47719  63.1753  86.2841 7194663 269.0636  15.7380  2.00612931 34715
FENGYUN 3E              
1 49008U 21062A   25335.54035113  .00000045  00000+0  42094-4 0  9993
2 49008  98.7476 336.1943 0000842 334.5067  25.6068 14.19877570228531
GOES 18                 
1 51850U 22021A   25335.40577009  .00000118  00000+0  00000+0 0  9994
2 51850   0.0059  73.3655 0000634 217.5715 148.6725  1.00269313  4603
NOAA 21 (JPSS-2)        
1 54234U 22150A   25335.46580123  .00000107  00000+0  71633-4 0  9996
2 54234  98.7445 271.9156 0002581  59.0987 301.0443 14.19519021158497
METEOSAT-12 (MTG-I1)    
1 54743U 22170C   25335.29013066  .00000015  00000+0  00000+0 0  9994
2 54743   0.7143  29.6276 0001404 211.7381 293.1881  1.00273425 10999
TIANMU-1 03             
1 55973U 23039A   25335.52050275  .00017876  00000+0  44337-3 0  9992
2 55973  97.5103 137.8628 0004524  93.6652 266.5112 15.40423514150331
TIANMU-1 04             
1 55974U 23039B   25335.50236314  .00018172  00000+0  44578-3 0  9998
2 55974  97.5035 137.0399 0005251  89.6057 270.5790 15.40750687150336
TIANMU-1 05             
1 55975U 23039C   25335.49387602  .00017696  00000+0  43956-3 0  9993
2 55975  97.5082 137.5229 0004280 110.1275 250.0432 15.40380956150311
TIANMU-1 06             
1 55976U 23039D   25335.50492076  .00018071  00000+0  44260-3 0  9995
2 55976  97.5092 137.9902 0004655 105.7810 254.3950 15.40803858150331
FENGYUN 3G              
1 56232U 23055A   25335.46522297  .00036977  00000+0  59277-3 0  9992
2 56232  49.9947 285.5912 0009197  94.0601 266.1418 15.52627753149274
METEOR-M2 3             
1 57166U 23091A   25335.51964307  .00000029  00000+0  31420-4 0  9997
2 57166  98.6394  29.2541 0004494  38.7245 321.4255 14.24023852126382
TIANMU-1 07             
1 57399U 23101A   25335.52753322  .00008495  00000+0  31520-3 0  9996
2 57399  97.2900  25.6262 0005545 110.2322 249.9515 15.27818130131449
TIANMU-1 08             
1 57400U 23101B   25335.55985424  .00009073  00000+0  33648-3 0  9998
2 57400  97.2889  25.4578 0007420 115.3359 244.8650 15.27804034131448
TIANMU-1 09             
1 57401U 23101C   25335.48132669  .00009397  00000+0  34821-3 0  9999
2 57401  97.2846  24.9006 0006686 114.6170 245.5766 15.27823947131437
TIANMU-1 10             
1 57402U 23101D   25335.51547890  .00009085  00000+0  33672-3 0  9997
2 57402  97.2927  25.7719 0008430 115.9088 244.3021 15.27814953131437
FENGYUN 3F              
1 57490U 23111A   25335.52752888  .00000104  00000+0  69554-4 0  9993
2 57490  98.7097  44.0012 0000717  83.3816 276.7442 14.19888738120813
ARKTIKA-M 2             
1 58584U 23198A   25329.38147876  .00000201  00000+0  00000+0 0  9999
2 58584  63.2269 176.7630 6863801 268.1765  18.8388  2.00606686 14237
TIANMU-1 11             
1 58645U 23205A   25335.52305560  .00007591  00000+0  31230-3 0  9997
2 58645  97.3620 355.3454 0009070 353.8099   6.3025 15.24387306107383
TIANMU-1 12             
1 58646U 23205B   25335.54926617  .00007822  00000+0  32271-3 0  9995
2 58646  97.3607 355.1802 0006848 339.8554  20.2412 15.24298304107377
TIANMU-1 13             
1 58647U 23205C   25335.51733214  .00007503  00000+0  30965-3 0  9996
2 58647  97.3635 355.3451 0006535 317.2358  42.8370 15.24305066107362
TIANMU-1 14             
1 58648U 23205D   25335.56625830  .00007274  00000+0  30039-3 0  9993
2 58648  97.3567 354.7524 0007455 321.0203  39.0496 15.24290094107377
TIANMU-1 19             
1 58660U 23208A   25335.54394185  .00011279  00000+0  42131-3 0  9990
2 58660  97.4386  86.6060 0004195 302.7372  57.3462 15.27528643107113
TIANMU-1 20             
1 58661U 23208B   25335.53916006  .00011408  00000+0  41079-3 0  9996
2 58661  97.4324  87.0378 0006575 312.3353  47.7330 15.28721835107186
TIANMU-1 21             
1 58662U 23208C   25335.55645461  .00013064  00000+0  43585-3 0  9997
2 58662  97.4371  88.9139 0006059 306.7557  53.3127 15.31178652107289
TIANMU-1 22             
1 58663U 23208D   25335.47649416  .00010502  00000+0  39523-3 0  9994
2 58663  97.4379  86.6027 0003220 338.6233  21.4871 15.27304187107114
TIANMU-1 15             
1 58700U 24004A   25335.49718575  .00008110  00000+0  33313-3 0  9999
2 58700  97.4631 157.0077 0005952 343.1319  16.9720 15.24444881105635
TIANMU-1 16             
1 58701U 24004B   25332.72308521  .00001245  00000+0  54124-4 0  9995
2 58701  97.4570 153.6495 0005468 351.9748   8.1401 15.24146454105217
TIANMU-1 17             
1 58702U 24004C   25335.53101280  .00008309  00000+0  34335-3 0  9990
2 58702  97.4603 156.8474 0004472 345.8149  14.2961 15.24242909105635
TIANMU-1 18             
1 58703U 24004D   25335.51425299  .00008263  00000+0  34158-3 0  9990
2 58703  97.4621 157.0235 0003835 347.5038  12.6104 15.24236730105638
INSAT-3DS               
1 58990U 24033A   25335.44919038 -.00000134  00000+0  00000+0 0  9996
2 58990   0.0128 253.5794 0001547 358.6367  62.1811  1.00269950 45082
METEOR-M2 4             
1 59051U 24039A   25335.52055635  .00000047  00000+0  40716-4 0  9999
2 59051  98.6751 292.6062 0007639  29.5979 330.5630 14.22398406 91167
GOES 19                 
1 60133U 24119A   25335.41799019 -.00000227  00000+0  00000+0 0  9998
2 60133   0.0071 199.3391 0001185  93.7052 212.7934  1.00272114  4986
FENGYUN 3H              
1 65815U 25219A   25335.45406186  .00000115  00000+0  74708-4 0  9992
2 65815  98.6567 275.2905 0000664  67.5821 292.5425 14.19899476  9324
